{"fetched_at":"2026-03-29T16:36:15Z","count":15609,"tles":[{"name":"STARLINK-35203","line1":"1 65498U 25198G   26087.74749980  .00042297  00000+0  14316-2 0  9998","line2":"2 65498  53.1586 182.7802 0001270  77.0810 283.0332 15.30211342 31538","category":"Starlink"}]}